NORAD_CAT_ID,OBJECT_NAME,OBJECT_TYPE,EPOCH,MEAN_MOTION,ECCENTRICITY,INCLINATION,RA_OF_ASC_NODE,ARG_OF_PERICENTER,MEAN_ANOMALY,BSTAR,MEAN_MOTION_DOT,MEAN_MOTION_DDOT,TLE_LINE0,TLE_LINE1,TLE_LINE2,SEMIMAJOR_AXIS,PERIOD,APOGEE,PERIGEE,DECAYED
56772.0,STARLINK-6275,PAYLOAD,2023-10-30 22:13:54,14.98327834,0.000312,70.0005,14.7263,273.1402,86.94,-0.00033252,-4.058e-05,0.0,0 STARLINK-6275,1 56772U 23078F   23303.92632334 -.00004058  00000-0 -33252-3 0  9997,2 56772  70.0005  14.7263 0003120 273.1402  86.9400 14.98327834 23257,6950.2,96.107,574.233,569.896,0.0
56772.0,STARLINK-6275,PAYLOAD,2023-10-31 12:39:06,14.98334286,0.0002986,70.0003,13.2119,268.1536,91.9281,-8.1806e-05,-1.069e-05,0.0,0 STARLINK-6275,1 56772U 23078F   23304.52715536 -.00001069  00000-0 -81806-4 0  9998,2 56772  70.0003  13.2119 0002986 268.1536  91.9281 14.98334286 23601,6950.18,96.107,574.12,569.969,0.0
56772.0,STARLINK-6275,PAYLOAD,2023-10-31 14:15:14,14.98336205,0.0003072,70.0001,13.0432,269.1561,90.9246,-6.1218e-05,-8.23e-06,0.0,0 STARLINK-6275,1 56772U 23078F   23304.59391346 -.00000823  00000-0 -61218-4 0  9996,2 56772  70.0001  13.0432 0003072 269.1561  90.9246 14.98336205 23356,6950.174,96.107,574.174,569.904,0.0
56772.0,STARLINK-6275,PAYLOAD,2023-10-31 22:15:54,14.9833497,0.0002933,70.001,12.2015,269.277,90.8053,-0.00014879,-1.868e-05,0.0,0 STARLINK-6275,1 56772U 23078F   23304.92771616 -.00001868  00000-0 -14879-3 0  9995,2 56772  70.0010  12.2015 0002933 269.2770  90.8053 14.98334970 23400,6950.178,96.107,574.081,570.004,0.0
56772.0,STARLINK-6275,PAYLOAD,2023-11-01 12:41:07,14.98328048,0.0003139,70.0001,10.6873,266.6237,93.4562,0.00015812,1.794e-05,0.0,0 STARLINK-6275,1 56772U 23078F   23305.52855345  .00001794  00000-0  15812-3 0  9998,2 56772  70.0001  10.6873 0003139 266.6237  93.4562 14.98328048 23753,6950.199,96.107,574.246,569.882,0.0
56772.0,STARLINK-6275,PAYLOAD,2023-11-01 14:17:14,14.98328039,0.0003135,70.0003,10.5189,268.0427,92.0373,0.00018975,2.172e-05,0.0,0 STARLINK-6275,1 56772U 23078F   23305.59531248  .00002172  00000-0  18975-3 0  9992,2 56772  70.0003  10.5189 0003135 268.0427  92.0373 14.98328039 23505,6950.199,96.107,574.243,569.885,0.0
56772.0,STARLINK-6275,PAYLOAD,2023-11-01 22:17:55,14.98330409,0.0003079,70.0005,9.677,268.9134,91.1672,0.00011025,1.223e-05,0.0,0 STARLINK-6275,1 56772U 23078F   23305.92911352  .00001223  00000-0  11025-3 0  9992,2 56772  70.0005   9.6770 0003079 268.9134  91.1672 14.98330409 23554,6950.192,96.107,574.197,569.917,0.0
56772.0,STARLINK-6275,PAYLOAD,2023-11-02 12:43:07,14.98329155,0.0002942,70.0005,8.1624,268.6469,91.4353,0.00012885,1.445e-05,0.0,0 STARLINK-6275,1 56772U 23078F   23306.52995370  .00001445  00000-0  12885-3 0  9992,2 56772  70.0005   8.1624 0002942 268.6469  91.4353 14.98329155 23906,6950.196,96.107,574.105,570.016,0.0
56772.0,STARLINK-6275,PAYLOAD,2023-11-02 14:19:15,14.98330801,0.0002809,70.0006,7.994,264.9715,95.1123,0.00011864,1.323e-05,0.0,0 STARLINK-6275,1 56772U 23078F   23306.59671283  .00001323  00000-0  11864-3 0  9994,2 56772  70.0006   7.9940 0002809 264.9715  95.1123 14.98330801 23658,6950.19,96.107,574.008,570.103,0.0
56772.0,STARLINK-6275,PAYLOAD,2023-11-03 11:09:01,14.9832404,0.0002742,70.001,5.8065,267.319,92.7655,-4.9838e-05,-6.87e-06,0.0,0 STARLINK-6275,1 56772U 23078F   23307.46460174 -.00000687  00000-0 -49838-4 0  9993,2 56772  70.0010   5.8065 0002742 267.3190  92.7655 14.98324040 24043,6950.211,96.107,573.982,570.171,0.0
56772.0,STARLINK-6275,PAYLOAD,2023-11-03 14:21:17,14.9832421,0.0002696,70.001,5.4706,261.8621,98.2232,-7.6686e-05,-1.008e-05,0.0,0 STARLINK-6275,1 56772U 23078F   23307.59812249 -.00001008  00000-0 -76686-4 0  9990,2 56772  70.0010   5.4706 0002696 261.8621  98.2232 14.98324210 23801,6950.211,96.107,573.95,570.202,0.0
56772.0,STARLINK-6275,PAYLOAD,2023-11-03 20:45:49,14.98331139,0.0003029,70.0005,4.7961,272.8134,87.2679,-6.4989e-05,-8.68e-06,0.0,0 STARLINK-6275,1 56772U 23078F   23307.86515773 -.00000868  00000-0 -64989-4 0  9998,2 56772  70.0005   4.7961 0003029 272.8134  87.2679 14.98331139 23847,6950.189,96.107,574.16,569.949,0.0
56772.0,STARLINK-6275,PAYLOAD,2023-11-04 04:46:29,14.9833018,0.0003022,69.9999,3.9543,273.8795,86.2018,-8.1357e-06,-1.9e-06,0.0,0 STARLINK-6275,1 56772U 23078F   23308.19895670 -.00000190  00000-0 -81357-5 0  9999,2 56772  69.9999   3.9543 0003022 273.8795  86.2018 14.98330180 24156,6950.192,96.107,574.158,569.957,0.0
56772.0,STARLINK-6275,PAYLOAD,2023-11-04 14:23:17,14.98333397,0.000267,70.0007,2.9448,272.5922,87.4931,5.5266e-05,5.67e-06,0.0,0 STARLINK-6275,1 56772U 23078F   23308.59951293  .00000567  00000-0  55266-4 0  9992,2 56772  70.0007   2.9448 0002670 272.5922  87.4931 14.98333397 23955,6950.182,96.107,573.903,570.192,0.0
56772.0,STARLINK-6275,PAYLOAD,2023-11-04 20:47:50,14.98342143,0.0002645,70.0011,2.2719,269.4471,90.6385,-0.00013718,-1.73e-05,0.0,0 STARLINK-6275,1 56772U 23078F   23308.86655127 -.00001730  00000-0 -13718-3 0  9999,2 56772  70.0011   2.2719 0002645 269.4471  90.6385 14.98342143 23992,6950.155,96.106,573.859,570.182,0.0
56772.0,STARLINK-6275,PAYLOAD,2023-11-05 04:48:30,14.98328764,0.0002702,70.0004,1.43,270.2774,89.8075,0.00014701,1.661e-05,0.0,0 STARLINK-6275,1 56772U 23078F   23309.20035118  .00001661  00000-0  14701-3 0  9994,2 56772  70.0004   1.4300 0002702 270.2774  89.8075 14.98328764 24306,6950.197,96.107,573.94,570.184,0.0
56772.0,STARLINK-6275,PAYLOAD,2023-11-05 12:49:10,14.98333791,0.0002649,70.0006,0.5882,270.0962,89.9893,0.00016503,1.877e-05,0.0,0 STARLINK-6275,1 56772U 23078F   23309.53414716  .00001877  00000-0  16503-3 0  9996,2 56772  70.0006   0.5882 0002649 270.0962  89.9893 14.98333791 24091,6950.181,96.107,573.887,570.205,0.0
56772.0,STARLINK-6275,PAYLOAD,2023-11-06 11:15:03,14.98335378,0.0002796,69.9999,358.2302,268.0128,92.0711,-4.2737e-05,-6.03e-06,0.0,0 STARLINK-6275,1 56772U 23078F   23310.46878843 -.00000603  00000-0 -42737-4 0  9992,2 56772  69.9999 358.2302 0002796 268.0128  92.0711 14.98335378 24494,6950.176,96.107,573.985,570.098,0.0
56772.0,STARLINK-6275,PAYLOAD,2023-11-06 12:51:11,14.98338556,0.0002761,70.0002,358.062,267.2807,92.8036,-1.4502e-05,-2.66e-06,0.0,0 STARLINK-6275,1 56772U 23078F   23310.53554556 -.00000266  00000-0 -14502-4 0  9996,2 56772  70.0002 358.0620 0002761 267.2807  92.8036 14.98338556 24242,6950.166,96.106,573.95,570.112,0.0
56772.0,STARLINK-6275,PAYLOAD,2023-11-06 20:51:53,14.9831992,0.0002389,70.0008,357.2208,279.4936,80.5953,-0.00016856,-2.103e-05,0.0,0 STARLINK-6275,1 56772U 23078F   23310.86936378 -.00002103  00000-0 -16856-3 0  9993,2 56772  70.0008 357.2208 0002389 279.4936  80.5953 14.98319920 24296,6950.224,96.108,573.749,570.429,0.0
56772.0,STARLINK-6275,PAYLOAD,2023-11-07 11:17:07,14.98304057,0.0002862,69.9999,355.7055,272.932,87.1511,-0.00034877,-4.249e-05,0.0,0 STARLINK-6275,1 56772U 23078F   23311.47022431 -.00004249  00000-0 -34877-3 0  9993,2 56772  69.9999 355.7055 0002862 272.9320  87.1511 14.98304057 24643,6950.273,96.109,574.127,570.149,0.0
56772.0,STARLINK-6275,PAYLOAD,2023-11-07 12:53:15,14.98304267,0.0002783,69.9999,355.5373,272.5484,87.5357,-0.00033456,-4.08e-05,0.0,0 STARLINK-6275,1 56772U 23078F   23311.53698485 -.00004080  00000-0 -33456-3 0  9993,2 56772  69.9999 355.5373 0002783 272.5484  87.5357 14.98304267 24390,6950.272,96.109,574.072,570.203,0.0
56772.0,STARLINK-6275,PAYLOAD,2023-11-08 03:18:25,14.98336881,0.0002393,70.0006,354.0242,284.4319,75.6575,0.00020709,2.379e-05,0.0,0 STARLINK-6275,1 56772U 23078F   23312.13779672  .00002379  00000-0  20709-3 0  9992,2 56772  70.0006 354.0242 0002393 284.4319  75.6575 14.98336881 24743,6950.172,96.107,573.7,570.373,0.0
56772.0,STARLINK-6275,PAYLOAD,2023-11-08 11:19:06,14.98329486,0.0002643,70.0009,353.1828,266.9716,93.1141,0.00011897,1.327e-05,0.0,0 STARLINK-6275,1 56772U 23078F   23312.47160253  .00001327  00000-0  11897-3 0  9998,2 56772  70.0009 353.1828 0002643 266.9716  93.1141 14.98329486 24792,6950.194,96.107,573.896,570.223,0.0
56772.0,STARLINK-6275,PAYLOAD,2023-11-08 12:55:14,14.98333824,0.000275,70.0004,353.0143,299.4551,60.6334,0.00018102,2.068e-05,0.0,0 STARLINK-6275,1 56772U 23078F   23312.53836170  .00002068  00000-0  18102-3 0  9992,2 56772  70.0004 353.0143 0002750 299.4551  60.6334 14.98333824 24540,6950.181,96.107,573.957,570.135,0.0
56772.0,STARLINK-6275,PAYLOAD,2023-11-09 11:21:06,14.98325292,0.0002119,70.0015,350.6581,256.7899,103.3024,0.00046792,5.494e-05,0.0,0 STARLINK-6275,1 56772U 23078F   23313.47299550  .00005494  00000-0  46792-3 0  9993,2 56772  70.0015 350.6581 0002119 256.7899 103.3024 14.98325292 24946,6950.207,96.107,573.545,570.6,0.0
56772.0,STARLINK-6275,PAYLOAD,2023-11-09 12:57:14,14.98326752,0.0002262,70.001,350.4891,264.6137,95.4764,0.00048078,5.648e-05,0.0,0 STARLINK-6275,1 56772U 23078F   23313.53975441  .00005648  00000-0  48078-3 0  9990,2 56772  70.0010 350.4891 0002262 264.6137  95.4764 14.98326752 24691,6950.203,96.107,573.64,570.496,0.0
56772.0,STARLINK-6275,PAYLOAD,2023-11-09 19:21:47,14.98332196,0.0002626,70.0029,349.8207,258.2823,101.8041,4.2942e-05,4.2e-06,0.0,0 STARLINK-6275,1 56772U 23078F   23313.80680082  .00000420  00000-0  42942-4 0  9992,2 56772  70.0029 349.8207 0002626 258.2823 101.8041 14.98332196 24733,6950.186,96.107,573.876,570.226,0.0
56772.0,STARLINK-6275,PAYLOAD,2023-11-10 11:23:07,14.98359187,0.0002402,70.0,348.1313,278.2451,81.8436,-0.00051891,-6.283e-05,0.0,0 STARLINK-6275,1 56772U 23078F   23314.47439733 -.00006283  00000-0 -51891-3 0  9998,2 56772  70.0000 348.1313 0002402 278.2451  81.8436 14.98359187 25097,6950.103,96.105,573.637,570.298,0.0
56772.0,STARLINK-6275,PAYLOAD,2023-11-10 12:59:16,14.98357883,0.0002261,70.0005,347.9639,274.5933,85.4968,-0.00053606,-6.488e-05,0.0,0 STARLINK-6275,1 56772U 23078F   23314.54115746 -.00006488  00000-0 -53606-3 0  9994,2 56772  70.0005 347.9639 0002261 274.5933  85.4968 14.98357883 24840,6950.107,96.105,573.543,570.4,0.0
